{
  "type": "Feature",
  "properties": {
    "id": "watershed_004",
    "code": "MWS-MP-2025-108",
    "name": "Indore Rural Micro-Watershed",
    "state": "Madhya Pradesh",
    "district": "Indore",
    "block": "Sanwer",
    "area_ha": 525.01,
    "project": "PMKSY-WDC 2.0 Batch-I",
    "village": "Chandrawatiganj",
    "rainfall_mm": 940,
    "soil": "Black Cotton Soil (Vertisol)",
    "aquifer": "Basaltic Alluvium Complex",
    "population": 5120,
    "households": 985
  },
  "geometry": {
    "type": "Polygon",
    "coordinates": [
      [
        [
          75.804704,
          22.965
        ],
        [
          75.804687,
          22.96642
        ],
        [
          75.804115,
          22.967785
        ],
        [
          75.803118,
          22.96902
        ],
        [
          75.80187,
          22.970108
        ],
        [
          75.800517,
          22.971076
        ],
        [
          75.799124,
          22.97196
        ],
        [
          75.797678,
          22.972775
        ],
        [
          75.796131,
          22.973492
        ],
        [
          75.794455,
          22.974055
        ],
        [
          75.792669,
          22.974415
        ],
        [
          75.790832,
          22.974566
        ],
        [
          75.789,
          22.974554
        ],
        [
          75.78719,
          22.974451
        ],
        [
          75.785369,
          22.974316
        ],
        [
          75.783487,
          22.97415
        ],
        [
          75.781531,
          22.973893
        ],
        [
          75.779574,
          22.973445
        ],
        [
          75.777773,
          22.972719
        ],
        [
          75.77632,
          22.971689
        ],
        [
          75.775364,
          22.970413
        ],
        [
          75.77494,
          22.969004
        ],
        [
          75.774949,
          22.967588
        ],
        [
          75.775203,
          22.966249
        ],
        [
          75.775504,
          22.965
        ],
        [
          75.775737,
          22.9638
        ],
        [
          75.77591,
          22.962589
        ],
        [
          75.776141,
          22.961338
        ],
        [
          75.776582,
          22.960071
        ],
        [
          75.777351,
          22.958855
        ],
        [
          75.778476,
          22.957765
        ],
        [
          75.779902,
          22.956849
        ],
        [
          75.781531,
          22.956107
        ],
        [
          75.783281,
          22.955508
        ],
        [
          75.785112,
          22.955024
        ],
        [
          75.78702,
          22.954663
        ],
        [
          75.789,
          22.954479
        ],
        [
          75.791002,
          22.954548
        ],
        [
          75.792927,
          22.954925
        ],
        [
          75.794661,
          22.955603
        ],
        [
          75.796131,
          22.956508
        ],
        [
          75.79735,
          22.957519
        ],
        [
          75.79842,
          22.958524
        ],
        [
          75.799485,
          22.959469
        ],
        [
          75.800651,
          22.960375
        ],
        [
          75.801917,
          22.961322
        ],
        [
          75.803154,
          22.962393
        ],
        [
          75.804153,
          22.963628
        ],
        [
          75.804704,
          22.965
        ]
      ]
    ]
  }
}