{
  "type": "Feature",
  "properties": {
    "id": "watershed_002",
    "code": "MWS-MH-2025-027",
    "name": "Paithan South Micro-Watershed",
    "state": "Maharashtra",
    "district": "Chhatrapati Sambhajinagar",
    "block": "Paithan",
    "area_ha": 356.67,
    "project": "IWMP Batch-XII / PMKSY-WDC 2.0",
    "village": "Pachod",
    "rainfall_mm": 668,
    "soil": "Shallow murrum (Entisol)",
    "aquifer": "Deccan basalt - vesicular",
    "population": 2960,
    "households": 571
  },
  "geometry": {
    "type": "Polygon",
    "coordinates": [
      [
        [
          75.384759,
          19.792
        ],
        [
          75.384745,
          19.793162
        ],
        [
          75.384281,
          19.794278
        ],
        [
          75.383471,
          19.795289
        ],
        [
          75.382457,
          19.79618
        ],
        [
          75.381357,
          19.796971
        ],
        [
          75.380226,
          19.797695
        ],
        [
          75.379051,
          19.798361
        ],
        [
          75.377794,
          19.798948
        ],
        [
          75.376432,
          19.799408
        ],
        [
          75.374981,
          19.799703
        ],
        [
          75.373488,
          19.799827
        ],
        [
          75.372,
          19.799817
        ],
        [
          75.37053,
          19.799733
        ],
        [
          75.36905,
          19.799622
        ],
        [
          75.367521,
          19.799487
        ],
        [
          75.365932,
          19.799276
        ],
        [
          75.364342,
          19.79891
        ],
        [
          75.362878,
          19.798315
        ],
        [
          75.361697,
          19.797473
        ],
        [
          75.36092,
          19.796429
        ],
        [
          75.360576,
          19.795276
        ],
        [
          75.360584,
          19.794118
        ],
        [
          75.36079,
          19.793022
        ],
        [
          75.361034,
          19.792
        ],
        [
          75.361223,
          19.791018
        ],
        [
          75.361365,
          19.790027
        ],
        [
          75.361552,
          19.789004
        ],
        [
          75.36191,
          19.787967
        ],
        [
          75.362535,
          19.786972
        ],
        [
          75.363449,
          19.78608
        ],
        [
          75.364608,
          19.785331
        ],
        [
          75.365932,
          19.784724
        ],
        [
          75.367353,
          19.784234
        ],
        [
          75.368841,
          19.783838
        ],
        [
          75.370392,
          19.783542
        ],
        [
          75.372,
          19.783392
        ],
        [
          75.373626,
          19.783448
        ],
        [
          75.375191,
          19.783757
        ],
        [
          75.3766,
          19.784312
        ],
        [
          75.377794,
          19.785052
        ],
        [
          75.378785,
          19.785879
        ],
        [
          75.379654,
          19.786701
        ],
        [
          75.380519,
          19.787474
        ],
        [
          75.381467,
          19.788216
        ],
        [
          75.382495,
          19.78899
        ],
        [
          75.383501,
          19.789867
        ],
        [
          75.384312,
          19.790878
        ],
        [
          75.384759,
          19.792
        ]
      ]
    ]
  }
}