{
  "type": "Feature",
  "properties": {
    "id": "watershed_005",
    "code": "MWS-RJ-2025-215",
    "name": "Jamwa Ramgarh Micro-Watershed",
    "state": "Rajasthan",
    "district": "Jaipur",
    "block": "Jamwa Ramgarh",
    "area_ha": 631.33,
    "project": "PMKSY-WDC 2.0 Batch-II",
    "village": "Bhanpur Kalan",
    "rainfall_mm": 525,
    "soil": "Sandy Loam / Aridisol",
    "aquifer": "Quaternary Alluvium & Quartzite",
    "population": 3450,
    "households": 630
  },
  "geometry": {
    "type": "Polygon",
    "coordinates": [
      [
        [
          76.002176,
          27.025
        ],
        [
          76.002157,
          27.026613
        ],
        [
          76.001533,
          27.028164
        ],
        [
          76.000442,
          27.029569
        ],
        [
          75.999077,
          27.030805
        ],
        [
          75.997596,
          27.031904
        ],
        [
          75.996073,
          27.032909
        ],
        [
          75.994491,
          27.033835
        ],
        [
          75.9928,
          27.03465
        ],
        [
          75.990967,
          27.035289
        ],
        [
          75.989013,
          27.035698
        ],
        [
          75.987004,
          27.035871
        ],
        [
          75.985,
          27.035857
        ],
        [
          75.98302,
          27.03574
        ],
        [
          75.981029,
          27.035586
        ],
        [
          75.97897,
          27.035398
        ],
        [
          75.976831,
          27.035106
        ],
        [
          75.974691,
          27.034597
        ],
        [
          75.97272,
          27.033771
        ],
        [
          75.971131,
          27.032602
        ],
        [
          75.970085,
          27.031151
        ],
        [
          75.969622,
          27.02955
        ],
        [
          75.969632,
          27.027941
        ],
        [
          75.969909,
          27.026419
        ],
        [
          75.970238,
          27.025
        ],
        [
          75.970493,
          27.023636
        ],
        [
          75.970683,
          27.02226
        ],
        [
          75.970935,
          27.020839
        ],
        [
          75.971418,
          27.019399
        ],
        [
          75.972259,
          27.018017
        ],
        [
          75.97349,
          27.016778
        ],
        [
          75.975049,
          27.015737
        ],
        [
          75.976831,
          27.014894
        ],
        [
          75.978745,
          27.014213
        ],
        [
          75.980747,
          27.013663
        ],
        [
          75.982835,
          27.013253
        ],
        [
          75.985,
          27.013044
        ],
        [
          75.987189,
          27.013123
        ],
        [
          75.989295,
          27.013551
        ],
        [
          75.991192,
          27.014322
        ],
        [
          75.9928,
          27.01535
        ],
        [
          75.994133,
          27.016498
        ],
        [
          75.995303,
          27.01764
        ],
        [
          75.996468,
          27.018714
        ],
        [
          75.997744,
          27.019745
        ],
        [
          75.999128,
          27.02082
        ],
        [
          76.000481,
          27.022037
        ],
        [
          76.001573,
          27.023441
        ],
        [
          76.002176,
          27.025
        ]
      ]
    ]
  }
}