{
  "type": "Feature",
  "properties": {
    "id": "watershed_001",
    "code": "MWS-MH-2025-014",
    "name": "Aurangabad North Micro-Watershed",
    "state": "Maharashtra",
    "district": "Chhatrapati Sambhajinagar",
    "block": "Paithan",
    "area_ha": 457.12,
    "project": "IWMP Batch-XII / PMKSY-WDC 2.0",
    "village": "Nidhona Bk.",
    "rainfall_mm": 712,
    "soil": "Medium black (Vertic Inceptisol)",
    "aquifer": "Deccan basalt - weathered / fractured",
    "population": 4180,
    "households": 806
  },
  "geometry": {
    "type": "Polygon",
    "coordinates": [
      [
        [
          75.357722,
          19.8445
        ],
        [
          75.357706,
          19.845791
        ],
        [
          75.357171,
          19.847031
        ],
        [
          75.356236,
          19.848155
        ],
        [
          75.355066,
          19.849144
        ],
        [
          75.353797,
          19.850023
        ],
        [
          75.352491,
          19.850827
        ],
        [
          75.351136,
          19.851568
        ],
        [
          75.349686,
          19.85222
        ],
        [
          75.348114,
          19.852731
        ],
        [
          75.34644,
          19.853059
        ],
        [
          75.344717,
          19.853196
        ],
        [
          75.343,
          19.853185
        ],
        [
          75.341303,
          19.853092
        ],
        [
          75.339596,
          19.852969
        ],
        [
          75.337832,
          19.852818
        ],
        [
          75.335998,
          19.852585
        ],
        [
          75.334163,
          19.852177
        ],
        [
          75.332474,
          19.851517
        ],
        [
          75.331112,
          19.850581
        ],
        [
          75.330216,
          19.849421
        ],
        [
          75.329818,
          19.84814
        ],
        [
          75.329828,
          19.846853
        ],
        [
          75.330065,
          19.845635
        ],
        [
          75.330347,
          19.8445
        ],
        [
          75.330565,
          19.843409
        ],
        [
          75.330729,
          19.842308
        ],
        [
          75.330944,
          19.841171
        ],
        [
          75.331358,
          19.840019
        ],
        [
          75.332079,
          19.838913
        ],
        [
          75.333134,
          19.837923
        ],
        [
          75.334471,
          19.83709
        ],
        [
          75.335998,
          19.836415
        ],
        [
          75.337638,
          19.835871
        ],
        [
          75.339355,
          19.835431
        ],
        [
          75.341144,
          19.835103
        ],
        [
          75.343,
          19.834935
        ],
        [
          75.344876,
          19.834998
        ],
        [
          75.346681,
          19.835341
        ],
        [
          75.348308,
          19.835958
        ],
        [
          75.349686,
          19.83678
        ],
        [
          75.350828,
          19.837699
        ],
        [
          75.351831,
          19.838612
        ],
        [
          75.35283,
          19.839471
        ],
        [
          75.353923,
          19.840296
        ],
        [
          75.35511,
          19.841156
        ],
        [
          75.35627,
          19.84213
        ],
        [
          75.357206,
          19.843253
        ],
        [
          75.357722,
          19.8445
        ]
      ]
    ]
  }
}