{
  "type": "Feature",
  "properties": {
    "id": "watershed_003",
    "code": "MWS-MH-2025-042",
    "name": "Gangapur Central Micro-Watershed",
    "state": "Maharashtra",
    "district": "Chhatrapati Sambhajinagar",
    "block": "Gangapur",
    "area_ha": 405.69,
    "project": "IWMP Batch-XIV / PMKSY-WDC 2.0",
    "village": "Lasanpur",
    "rainfall_mm": 695,
    "soil": "Deep Alluvial Black Clay",
    "aquifer": "Deccan trap basalt - fractured unconfined",
    "population": 3820,
    "households": 740
  },
  "geometry": {
    "type": "Polygon",
    "coordinates": [
      [
        [
          75.025741,
          19.695
        ],
        [
          75.025726,
          19.696226
        ],
        [
          75.025226,
          19.697405
        ],
        [
          75.024353,
          19.698472
        ],
        [
          75.023261,
          19.699412
        ],
        [
          75.022077,
          19.700247
        ],
        [
          75.020858,
          19.701011
        ],
        [
          75.019593,
          19.701715
        ],
        [
          75.01824,
          19.702334
        ],
        [
          75.016773,
          19.70282
        ],
        [
          75.015211,
          19.703131
        ],
        [
          75.013603,
          19.703262
        ],
        [
          75.012,
          19.703251
        ],
        [
          75.010416,
          19.703162
        ],
        [
          75.008823,
          19.703045
        ],
        [
          75.007176,
          19.702903
        ],
        [
          75.005465,
          19.702681
        ],
        [
          75.003753,
          19.702293
        ],
        [
          75.002176,
          19.701666
        ],
        [
          75.000905,
          19.700777
        ],
        [
          75.000068,
          19.699675
        ],
        [
          74.999697,
          19.698458
        ],
        [
          74.999706,
          19.697235
        ],
        [
          74.999927,
          19.696079
        ],
        [
          75.000191,
          19.695
        ],
        [
          75.000394,
          19.693963
        ],
        [
          75.000547,
          19.692918
        ],
        [
          75.000748,
          19.691837
        ],
        [
          75.001134,
          19.690743
        ],
        [
          75.001807,
          19.689693
        ],
        [
          75.002792,
          19.688752
        ],
        [
          75.004039,
          19.68796
        ],
        [
          75.005465,
          19.687319
        ],
        [
          75.006996,
          19.686802
        ],
        [
          75.008598,
          19.686384
        ],
        [
          75.010268,
          19.686072
        ],
        [
          75.012,
          19.685914
        ],
        [
          75.013751,
          19.685973
        ],
        [
          75.015436,
          19.686299
        ],
        [
          75.016954,
          19.686885
        ],
        [
          75.01824,
          19.687666
        ],
        [
          75.019306,
          19.688539
        ],
        [
          75.020243,
          19.689407
        ],
        [
          75.021175,
          19.690223
        ],
        [
          75.022195,
          19.691006
        ],
        [
          75.023302,
          19.691823
        ],
        [
          75.024385,
          19.692748
        ],
        [
          75.025259,
          19.693816
        ],
        [
          75.025741,
          19.695
        ]
      ]
    ]
  }
}